<?xml version="1.0" encoding="UTF-8"?>
<kml xmlns="http://www.opengis.net/kml/2.2" xmlns:gx="http://www.google.com/kml/ext/2.2" xmlns:kml="http://www.opengis.net/kml/2.2" xmlns:atom="http://www.w3.org/2005/Atom">
<Document id="document">
	<name>Radio Accion H2O</name>
	<gx:CascadingStyle kml:id="__managed_style_0F1F7C8B4142188E7258_normal">
		<Style>
			<IconStyle>
				<Icon>
					<href>https://earth.google.com/earth/document/icon?color=1976d2&amp;id=2000&amp;scale=4</href>
				</Icon>
				<hotSpot x="64" y="128" xunits="pixels" yunits="insetPixels"/>
			</IconStyle>
			<LabelStyle>
			</LabelStyle>
			<LineStyle>
				<color>ff2dc0fb</color>
				<width>4</width>
			</LineStyle>
			<PolyStyle>
				<color>40ffffff</color>
			</PolyStyle>
			<BalloonStyle>
				<displayMode>hide</displayMode>
			</BalloonStyle>
		</Style>
	</gx:CascadingStyle>
	<gx:CascadingStyle kml:id="__managed_style_0F1F7C8B4142188E7258_highlight">
		<Style>
			<IconStyle>
				<scale>1.2</scale>
				<Icon>
					<href>https://earth.google.com/earth/document/icon?color=1976d2&amp;id=2000&amp;scale=4</href>
				</Icon>
				<hotSpot x="64" y="128" xunits="pixels" yunits="insetPixels"/>
			</IconStyle>
			<LabelStyle>
			</LabelStyle>
			<LineStyle>
				<color>ff2dc0fb</color>
				<width>6</width>
			</LineStyle>
			<PolyStyle>
				<color>40ffffff</color>
			</PolyStyle>
			<BalloonStyle>
				<displayMode>hide</displayMode>
			</BalloonStyle>
		</Style>
	</gx:CascadingStyle>
	<StyleMap id="__managed_style_0F1F7C8B4142188E7258">
		<Pair>
			<key>normal</key>
			<styleUrl>#__managed_style_0F1F7C8B4142188E7258_normal</styleUrl>
		</Pair>
		<Pair>
			<key>highlight</key>
			<styleUrl>#__managed_style_0F1F7C8B4142188E7258_highlight</styleUrl>
		</Pair>
	</StyleMap>
	<Placemark id="080B09B92742188E7227">
		<name>Polígono sin título</name>
		<LookAt>
			<longitude>-71.62481309705713</longitude>
			<latitude>10.65995007664011</latitude>
			<altitude>41.72916689014915</altitude>
			<heading>0</heading>
			<tilt>0</tilt>
			<gx:fovy>35</gx:fovy>
			<range>946.6710600326769</range>
			<altitudeMode>absolute</altitudeMode>
		</LookAt>
		<styleUrl>#__managed_style_0F1F7C8B4142188E7258</styleUrl>
		<Polygon>
			<outerBoundaryIs>
				<LinearRing>
					<coordinates>
						-71.58985118955469,10.65812788064056,0 -71.59513105848049,10.66077201996033,0 -71.59425498603555,10.6627702655962,0 -71.59336857727932,10.66591845823987,0 -71.59227209312294,10.66706924739049,0 -71.59165688607398,10.66843513106227,0 -71.59150868775518,10.67050685751919,0 -71.59169204317205,10.6709789777335,0 -71.59158293636656,10.67221516035445,0 -71.59117968043836,10.6732776575036,0 -71.5928308251447,10.67978586028681,0 -71.59627917514476,10.68460358831367,0 -71.59823537302958,10.68727441526599,0 -71.5994881183945,10.68824559476864,0 -71.61396487641925,10.69152960086965,0 -71.61397317044532,10.69492982837295,0 -71.6190211026324,10.69451135936748,0 -71.62545476498849,10.69412382011235,0 -71.62536595206424,10.69330451272348,0 -71.62529023348728,10.68711849812241,0 -71.6238879492235,10.68406583826465,0 -71.62232074118037,10.67886984079144,0 -71.62166717348633,10.67641302871949,0 -71.62703644320817,10.67495268852067,0 -71.62664781990837,10.67288172036736,0 -71.63030339862233,10.67156506425682,0 -71.63353627472718,10.66867005997051,0 -71.63492787833769,10.6675239368209,0 -71.63557724683473,10.66574088001552,0 -71.63132713899219,10.66328962891109,0 -71.62757322024454,10.66125053178601,0 -71.62533462909536,10.66159072506762,0 -71.62008774934893,10.66253996829141,0 -71.61936184198618,10.65736173411609,0 -71.61953420539281,10.65562873325075,0 -71.60020910129356,10.6565002664141,0 -71.59875298144011,10.65323330676712,0 -71.59311357990397,10.65280553354514,0 -71.58985118955469,10.65812788064056,0 
					</coordinates>
				</LinearRing>
			</outerBoundaryIs>
		</Polygon>
	</Placemark>
	<Placemark id="09614B15DF421890BC98">
		<name>Radio Accion </name>
		<LookAt>
			<longitude>-71.62545234827287</longitude>
			<latitude>10.65986646690804</latitude>
			<altitude>37.94969785065324</altitude>
			<heading>0</heading>
			<tilt>0</tilt>
			<gx:fovy>35</gx:fovy>
			<range>1716.32051635359</range>
			<altitudeMode>absolute</altitudeMode>
		</LookAt>
		<styleUrl>#__managed_style_0F1F7C8B4142188E7258</styleUrl>
		<Polygon>
			<outerBoundaryIs>
				<LinearRing>
					<coordinates>
						-71.58985118955469,10.65812788064056,0 -71.59513105848049,10.66077201996033,0 -71.59425498603555,10.6627702655962,0 -71.59336857727932,10.66591845823987,0 -71.59227209312294,10.66706924739049,0 -71.59165688607398,10.66843513106227,0 -71.59150868775518,10.67050685751919,0 -71.59169204317205,10.6709789777335,0 -71.59158293636656,10.67221516035445,0 -71.59117968043836,10.6732776575036,0 -71.5928308251447,10.67978586028681,0 -71.59627917514476,10.68460358831367,0 -71.59823537302958,10.68727441526599,0 -71.5994881183945,10.68824559476864,0 -71.61396487641925,10.69152960086965,0 -71.61397317044532,10.69492982837295,0 -71.6190211026324,10.69451135936748,0 -71.62545476498849,10.69412382011235,0 -71.62536595206424,10.69330451272348,0 -71.62529023348728,10.68711849812241,0 -71.6238879492235,10.68406583826465,0 -71.62232074118037,10.67886984079144,0 -71.62166717348633,10.67641302871949,0 -71.62703644320817,10.67495268852067,0 -71.62664781990837,10.67288172036736,0 -71.63030339862233,10.67156506425682,0 -71.63353627472718,10.66867005997051,0 -71.63492787833769,10.6675239368209,0 -71.63557724683473,10.66574088001552,0 -71.63132713899219,10.66328962891109,0 -71.62757322024454,10.66125053178601,0 -71.62533462909536,10.66159072506762,0 -71.62008774934893,10.66253996829141,0 -71.61936184198618,10.65736173411609,0 -71.61953420539281,10.65562873325075,0 -71.60020910129356,10.6565002664141,0 -71.59875298144011,10.65323330676712,0 -71.59311357990397,10.65280553354514,0 -71.58985118955469,10.65812788064056,0 
					</coordinates>
				</LinearRing>
			</outerBoundaryIs>
		</Polygon>
	</Placemark>
</Document>
</kml>
